{"fetched_at":"2026-07-16T06:42:31.905Z","source":"https://celestrak.org/NORAD/elements/gp.php?GROUP=kuiper&FORMAT=JSON","constellation":"kuiper","records":[{"OBJECT_NAME":"KUIPER-00215","OBJECT_ID":"2026-030R","EPOCH":"2026-07-15T22:00:01.999584","CLASSIFICATION_TYPE":"U","MEAN_MOTION":14.80000141,"ECCENTRICITY":0.00005973,"INCLINATION":51.8992,"RA_OF_ASC_NODE":343.5359,"ARG_OF_PERICENTER":100.6362,"MEAN_ANOMALY":267.7171,"EPHEMERIS_TYPE":0,"NORAD_CAT_ID":67779,"ELEMENT_SET_NO":999,"REV_AT_EPOCH":569,"BSTAR":0.00034197665,"MEAN_MOTION_DOT":0.00002391,"MEAN_MOTION_DDOT":0},{"OBJECT_NAME":"KUIPER-00218","OBJECT_ID":"2026-030S","EPOCH":"2026-07-15T20:46:06.731616","CLASSIFICATION_TYPE":"U","MEAN_MOTION":14.79931185,"ECCENTRICITY":0.00006368,"INCLINATION":51.9003,"RA_OF_ASC_NODE":358.8066,"ARG_OF_PERICENTER":140.9109,"MEAN_ANOMALY":219.1899,"EPHEMERIS_TYPE":0,"NORAD_CAT_ID":67780,"ELEMENT_SET_NO":999,"REV_AT_EPOCH":2426,"BSTAR":0.00022049032,"MEAN_MOTION_DOT":0.0000146,"MEAN_MOTION_DDOT":0},{"OBJECT_NAME":"KUIPER-00220","OBJECT_ID":"2026-030T","EPOCH":"2026-07-15T18:10:22.800576","CLASSIFICATION_TYPE":"U","MEAN_MOTION":14.7998073,"ECCENTRICITY":0.00012253,"INCLINATION":51.8954,"RA_OF_ASC_NODE":334.3232,"ARG_OF_PERICENTER":38.7104,"MEAN_ANOMALY":321.3946,"EPHEMERIS_TYPE":0,"NORAD_CAT_ID":67781,"ELEMENT_SET_NO":999,"REV_AT_EPOCH":2459,"BSTAR":0.00074665846,"MEAN_MOTION_DOT":0.00005482,"MEAN_MOTION_DDOT":0},{"OBJECT_NAME":"KUIPER-00222","OBJECT_ID":"2026-030U","EPOCH":"2026-07-15T18:28:01.157376","CLASSIFICATION_TYPE":"U","MEAN_MOTION":14.79940577,"ECCENTRICITY":0.00002115,"INCLINATION":51.9004,"RA_OF_ASC_NODE":354.3891,"ARG_OF_PERICENTER":73.1911,"MEAN_ANOMALY":286.9074,"EPHEMERIS_TYPE":0,"NORAD_CAT_ID":67782,"ELEMENT_SET_NO":999,"REV_AT_EPOCH":2431,"BSTAR":0.00015473228,"MEAN_MOTION_DOT":0.00000959,"MEAN_MOTION_DDOT":0},{"OBJECT_NAME":"KUIPER-00223","OBJECT_ID":"2026-030V","EPOCH":"2026-07-15T19:28:16.298400","CLASSIFICATION_TYPE":"U","MEAN_MOTION":14.79937797,"ECCENTRICITY":0.00004901,"INCLINATION":51.9026,"RA_OF_ASC_NODE":346.4959,"ARG_OF_PERICENTER":109.4629,"MEAN_ANOMALY":250.6386,"EPHEMERIS_TYPE":0,"NORAD_CAT_ID":67783,"ELEMENT_SET_NO":999,"REV_AT_EPOCH":2443,"BSTAR":0.00024927263,"MEAN_MOTION_DOT":0.0000168,"MEAN_MOTION_DDOT":0},{"OBJECT_NAME":"KUIPER-00225","OBJECT_ID":"2026-030W","EPOCH":"2026-07-15T19:20:32.059968","CLASSIFICATION_TYPE":"U","MEAN_MOTION":14.79934138,"ECCENTRICITY":0.00004963,"INCLINATION":51.9003,"RA_OF_ASC_NODE":351.6833,"ARG_OF_PERICENTER":116.3548,"MEAN_ANOMALY":243.7466,"EPHEMERIS_TYPE":0,"NORAD_CAT_ID":67784,"ELEMENT_SET_NO":999,"REV_AT_EPOCH":2435,"BSTAR":0.00024999327,"MEAN_MOTION_DOT":0.00001685,"MEAN_MOTION_DDOT":0},{"OBJECT_NAME":"KUIPER-00226","OBJECT_ID":"2026-030X","EPOCH":"2026-07-15T22:09:51.321888","CLASSIFICATION_TYPE":"U","MEAN_MOTION":14.76419089,"ECCENTRICITY":0.00035643,"INCLINATION":51.901,"RA_OF_ASC_NODE":337.1754,"ARG_OF_PERICENTER":155.3573,"MEAN_ANOMALY":204.7558,"EPHEMERIS_TYPE":0,"NORAD_CAT_ID":67785,"ELEMENT_SET_NO":999,"REV_AT_EPOCH":2457,"BSTAR":0.00016551585,"MEAN_MOTION_DOT":0.00000946,"MEAN_MOTION_DDOT":0},{"OBJECT_NAME":"KUIPER-00259","OBJECT_ID":"2026-030Y","EPOCH":"2026-07-15T18:31:53.940576","CLASSIFICATION_TYPE":"U","MEAN_MOTION":14.79934542,"ECCENTRICITY":0.00005243,"INCLINATION":51.9006,"RA_OF_ASC_NODE":351.7369,"ARG_OF_PERICENTER":108.5441,"MEAN_ANOMALY":251.5578,"EPHEMERIS_TYPE":0,"NORAD_CAT_ID":67786,"ELEMENT_SET_NO":999,"REV_AT_EPOCH":2435,"BSTAR":0.000068110248,"MEAN_MOTION_DOT":0.00000298,"MEAN_MOTION_DDOT":0},{"OBJECT_NAME":"KUIPER-00260","OBJECT_ID":"2026-030Z","EPOCH":"2026-07-15T18:35:48.051744","CLASSIFICATION_TYPE":"U","MEAN_MOTION":14.79933698,"ECCENTRICITY":0.00005434,"INCLINATION":51.9024,"RA_OF_ASC_NODE":349.319,"ARG_OF_PERICENTER":124.4965,"MEAN_ANOMALY":235.6049,"EPHEMERIS_TYPE":0,"NORAD_CAT_ID":67787,"ELEMENT_SET_NO":999,"REV_AT_EPOCH":2429,"BSTAR":0.00025162935,"MEAN_MOTION_DOT":0.00001698,"MEAN_MOTION_DDOT":0},{"OBJECT_NAME":"KUIPER-00262","OBJECT_ID":"2026-030AA","EPOCH":"2026-07-15T19:24:22.824000","CLASSIFICATION_TYPE":"U","MEAN_MOTION":14.79943633,"ECCENTRICITY":0.00007196,"INCLINATION":51.9008,"RA_OF_ASC_NODE":349.0875,"ARG_OF_PERICENTER":179.1379,"MEAN_ANOMALY":180.9585,"EPHEMERIS_TYPE":0,"NORAD_CAT_ID":67788,"ELEMENT_SET_NO":999,"REV_AT_EPOCH":2439,"BSTAR":0.00025192701,"MEAN_MOTION_DOT":0.000017,"MEAN_MOTION_DDOT":0},{"OBJECT_NAME":"KUIPER-00266","OBJECT_ID":"2026-030AB","EPOCH":"2026-07-15T10:33:26.885664","CLASSIFICATION_TYPE":"U","MEAN_MOTION":14.7992938,"ECCENTRICITY":0.00023541,"INCLINATION":51.9019,"RA_OF_ASC_NODE":348.2152,"ARG_OF_PERICENTER":178.1494,"MEAN_ANOMALY":181.9478,"EPHEMERIS_TYPE":0,"NORAD_CAT_ID":67789,"ELEMENT_SET_NO":999,"REV_AT_EPOCH":2437,"BSTAR":0.00024424431,"MEAN_MOTION_DOT":0.00001641,"MEAN_MOTION_DDOT":0},{"OBJECT_NAME":"KUIPER-00268","OBJECT_ID":"2026-030AC","EPOCH":"2026-07-15T21:09:30.849984","CLASSIFICATION_TYPE":"U","MEAN_MOTION":14.79923897,"ECCENTRICITY":0.00005248,"INCLINATION":51.9061,"RA_OF_ASC_NODE":343.7785,"ARG_OF_PERICENTER":122.2212,"MEAN_ANOMALY":237.8801,"EPHEMERIS_TYPE":0,"NORAD_CAT_ID":67790,"ELEMENT_SET_NO":999,"REV_AT_EPOCH":2447,"BSTAR":0.00025078708,"MEAN_MOTION_DOT":0.00001691,"MEAN_MOTION_DDOT":0},{"OBJECT_NAME":"KUIPER-00270","OBJECT_ID":"2026-030AD","EPOCH":"2026-07-15T20:35:56.878080","CLASSIFICATION_TYPE":"U","MEAN_MOTION":14.79879863,"ECCENTRICITY":0.0000918,"INCLINATION":51.9003,"RA_OF_ASC_NODE":333.8613,"ARG_OF_PERICENTER":70.5658,"MEAN_ANOMALY":289.5403,"EPHEMERIS_TYPE":0,"NORAD_CAT_ID":67791,"ELEMENT_SET_NO":999,"REV_AT_EPOCH":2461,"BSTAR":-0.0016167139,"MEAN_MOTION_DOT":-0.00012507,"MEAN_MOTION_DDOT":0},{"OBJECT_NAME":"KUIPER-00274","OBJECT_ID":"2026-030AE","EPOCH":"2026-07-15T16:46:53.384736","CLASSIFICATION_TYPE":"U","MEAN_MOTION":14.79936536,"ECCENTRICITY":0.00005741,"INCLINATION":51.9039,"RA_OF_ASC_NODE":357.0624,"ARG_OF_PERICENTER":162.9701,"MEAN_ANOMALY":197.1281,"EPHEMERIS_TYPE":0,"NORAD_CAT_ID":67792,"ELEMENT_SET_NO":999,"REV_AT_EPOCH":2427,"BSTAR":0.00025556318,"MEAN_MOTION_DOT":0.00001728,"MEAN_MOTION_DDOT":0},{"OBJECT_NAME":"KUIPER-00275","OBJECT_ID":"2026-030AF","EPOCH":"2026-07-15T10:48:59.658336","CLASSIFICATION_TYPE":"U","MEAN_MOTION":14.79940275,"ECCENTRICITY":0.00004599,"INCLINATION":51.9029,"RA_OF_ASC_NODE":338.1716,"ARG_OF_PERICENTER":136.3049,"MEAN_ANOMALY":223.795,"EPHEMERIS_TYPE":0,"NORAD_CAT_ID":67793,"ELEMENT_SET_NO":999,"REV_AT_EPOCH":2451,"BSTAR":0.0002479035,"MEAN_MOTION_DOT":0.0000167,"MEAN_MOTION_DDOT":0},{"OBJECT_NAME":"KUIPER-00276","OBJECT_ID":"2026-030AG","EPOCH":"2026-07-15T17:58:48.306144","CLASSIFICATION_TYPE":"U","MEAN_MOTION":14.79935169,"ECCENTRICITY":0.00020458,"INCLINATION":51.9008,"RA_OF_ASC_NODE":341.8343,"ARG_OF_PERICENTER":142.7166,"MEAN_ANOMALY":217.3939,"EPHEMERIS_TYPE":0,"NORAD_CAT_ID":67794,"ELEMENT_SET_NO":999,"REV_AT_EPOCH":2449,"BSTAR":0.000036114198,"MEAN_MOTION_DOT":5.4e-7,"MEAN_MOTION_DDOT":0}]}
