KUIPER-00215            
1 67779U 26030R   26196.91668981  .00002391  00000+0  34198-3 0  9991
2 67779  51.8992 343.5359 0000597 100.6362 267.7171 14.80000141  5693
KUIPER-00218            
1 67780U 26030S   26196.86535569  .00001460  00000+0  22049-3 0  9990
2 67780  51.9003 358.8066 0000636 140.9109 219.1899 14.79931185 24264
KUIPER-00220            
1 67781U 26030T   26196.75720834  .00005482  00000+0  74666-3 0  9990
2 67781  51.8954 334.3232 0001225  38.7104 321.3946 14.79980730 24592
KUIPER-00222            
1 67782U 26030U   26196.76945784  .00000959  00000+0  15473-3 0  9990
2 67782  51.9004 354.3891 0000211  73.1911 286.9074 14.79940577 24319
KUIPER-00223            
1 67783U 26030V   26196.81129975  .00001680  00000+0  24927-3 0  9999
2 67783  51.9026 346.4959 0000490 109.4629 250.6386 14.79937797 24436
KUIPER-00225            
1 67784U 26030W   26196.80592662  .00001685  00000+0  24999-3 0  9990
2 67784  51.9003 351.6833 0000496 116.3548 243.7466 14.79934138 24353
KUIPER-00226            
1 67785U 26030X   26196.92351067  .00000946  00000+0  16552-3 0  9991
2 67785  51.9010 337.1754 0003564 155.3573 204.7558 14.76419089 24576
KUIPER-00259            
1 67786U 26030Y   26196.77215209  .00000298  00000+0  68110-4 0  9990
2 67786  51.9006 351.7369 0000524 108.5441 251.5578 14.79934542 24350
KUIPER-00260            
1 67787U 26030Z   26196.77486171  .00001698  00000+0  25163-3 0  9994
2 67787  51.9024 349.3190 0000543 124.4965 235.6049 14.79933698 24295
KUIPER-00262            
1 67788U 26030AA  26196.80859750  .00001700  00000+0  25193-3 0  9993
2 67788  51.9008 349.0875 0000719 179.1379 180.9585 14.79943633 24394
KUIPER-00266            
1 67789U 26030AB  26196.43989451  .00001641  00000+0  24424-3 0  9995
2 67789  51.9019 348.2152 0002354 178.1494 181.9478 14.79929380 24373
KUIPER-00268            
1 67790U 26030AC  26196.88160706  .00001691  00000+0  25079-3 0  9992
2 67790  51.9061 343.7785 0000524 122.2212 237.8801 14.79923897 24478
KUIPER-00270            
1 67791U 26030AD  26196.85829720 -.00012507  00000+0 -16167-2 0  9995
2 67791  51.9003 333.8613 0000918  70.5658 289.5403 14.79879863 24612
KUIPER-00274            
1 67792U 26030AE  26196.69922899  .00001728  00000+0  25556-3 0  9993
2 67792  51.9039 357.0624 0000574 162.9701 197.1281 14.79936536 24276
KUIPER-00275            
1 67793U 26030AF  26196.45069049  .00001670  00000+0  24790-3 0  9992
2 67793  51.9029 338.1716 0000459 136.3049 223.7950 14.79940275 24511
KUIPER-00276            
1 67794U 26030AG  26196.74917021  .00000054  00000+0  36114-4 0  9996
2 67794  51.9008 341.8343 0002045 142.7166 217.3939 14.79935169 24499
